<?xml version="1.0" encoding="UTF-8"?>
<ndm xmlns:xsi="http://www.w3.org/2001/XMLSchema-instance" xsi:noNamespaceSchemaLocation="https://sanaregistry.org/r/ndmxml_unqualified/ndmxml-2.0.0-master-2.0.xsd">
<omm id="CCSDS_OMM_VERS" version="2.0">
<header><CREATION_DATE/><ORIGINATOR/></header><body><segment><metadata><OBJECT_NAME>ORBCOMM FM37</OBJECT_NAME><OBJECT_ID>2008-031E</OBJECT_ID><CENTER_NAME>EARTH</CENTER_NAME><REF_FRAME>TEME</REF_FRAME><TIME_SYSTEM>UTC</TIME_SYSTEM><MEAN_ELEMENT_THEORY>SGP4</MEAN_ELEMENT_THEORY></metadata><data><meanElements><EPOCH>2024-11-15T09:56:53.670048</EPOCH><MEAN_MOTION>14.78181545</MEAN_MOTION><ECCENTRICITY>.0005551</ECCENTRICITY><INCLINATION>48.4396</INCLINATION><RA_OF_ASC_NODE>278.8009</RA_OF_ASC_NODE><ARG_OF_PERICENTER>177.1039</ARG_OF_PERICENTER><MEAN_ANOMALY>326.8895</MEAN_ANOMALY></meanElements><tleParameters><EPHEMERIS_TYPE>0</EPHEMERIS_TYPE><CLASSIFICATION_TYPE>U</CLASSIFICATION_TYPE><NORAD_CAT_ID>33064</NORAD_CAT_ID><ELEMENT_SET_NO>999</ELEMENT_SET_NO><REV_AT_EPOCH>88272</REV_AT_EPOCH><BSTAR>.60571E-3</BSTAR><MEAN_MOTION_DOT>.423E-4</MEAN_MOTION_DOT><MEAN_MOTION_DDOT>0</MEAN_MOTION_DDOT></tleParameters></data></segment></body></omm>
<omm id="CCSDS_OMM_VERS" version="2.0">
<header><CREATION_DATE/><ORIGINATOR/></header><body><segment><metadata><OBJECT_NAME>ORBCOMM FM40</OBJECT_NAME><OBJECT_ID>2008-031F</OBJECT_ID><CENTER_NAME>EARTH</CENTER_NAME><REF_FRAME>TEME</REF_FRAME><TIME_SYSTEM>UTC</TIME_SYSTEM><MEAN_ELEMENT_THEORY>SGP4</MEAN_ELEMENT_THEORY></metadata><data><meanElements><EPOCH>2024-11-15T06:54:11.403072</EPOCH><MEAN_MOTION>14.79984281</MEAN_MOTION><ECCENTRICITY>.0006952</ECCENTRICITY><INCLINATION>48.4416</INCLINATION><RA_OF_ASC_NODE>266.6889</RA_OF_ASC_NODE><ARG_OF_PERICENTER>185.6108</ARG_OF_PERICENTER><MEAN_ANOMALY>327.7213</MEAN_ANOMALY></meanElements><tleParameters><EPHEMERIS_TYPE>0</EPHEMERIS_TYPE><CLASSIFICATION_TYPE>U</CLASSIFICATION_TYPE><NORAD_CAT_ID>33065</NORAD_CAT_ID><ELEMENT_SET_NO>999</ELEMENT_SET_NO><REV_AT_EPOCH>88289</REV_AT_EPOCH><BSTAR>.74057E-3</BSTAR><MEAN_MOTION_DOT>.5454E-4</MEAN_MOTION_DOT><MEAN_MOTION_DDOT>0</MEAN_MOTION_DDOT></tleParameters></data></segment></body></omm>
<omm id="CCSDS_OMM_VERS" version="2.0">
<header><CREATION_DATE/><ORIGINATOR/></header><body><segment><metadata><OBJECT_NAME>VESSELSAT 1</OBJECT_NAME><OBJECT_ID>2011-058C</OBJECT_ID><CENTER_NAME>EARTH</CENTER_NAME><REF_FRAME>TEME</REF_FRAME><TIME_SYSTEM>UTC</TIME_SYSTEM><MEAN_ELEMENT_THEORY>SGP4</MEAN_ELEMENT_THEORY></metadata><data><meanElements><EPOCH>2024-11-14T08:59:38.690304</EPOCH><MEAN_MOTION>14.11262355</MEAN_MOTION><ECCENTRICITY>.0013579</ECCENTRICITY><INCLINATION>19.9632</INCLINATION><RA_OF_ASC_NODE>313.6383</RA_OF_ASC_NODE><ARG_OF_PERICENTER>344.4425</ARG_OF_PERICENTER><MEAN_ANOMALY>15.5562</MEAN_ANOMALY></meanElements><tleParameters><EPHEMERIS_TYPE>0</EPHEMERIS_TYPE><CLASSIFICATION_TYPE>U</CLASSIFICATION_TYPE><NORAD_CAT_ID>37840</NORAD_CAT_ID><ELEMENT_SET_NO>999</ELEMENT_SET_NO><REV_AT_EPOCH>67592</REV_AT_EPOCH><BSTAR>.16626E-3</BSTAR><MEAN_MOTION_DOT>.569E-5</MEAN_MOTION_DOT><MEAN_MOTION_DDOT>0</MEAN_MOTION_DDOT></tleParameters></data></segment></body></omm>
<omm id="CCSDS_OMM_VERS" version="2.0">
<header><CREATION_DATE/><ORIGINATOR/></header><body><segment><metadata><OBJECT_NAME>ORBCOMM FM109</OBJECT_NAME><OBJECT_ID>2014-040A</OBJECT_ID><CENTER_NAME>EARTH</CENTER_NAME><REF_FRAME>TEME</REF_FRAME><TIME_SYSTEM>UTC</TIME_SYSTEM><MEAN_ELEMENT_THEORY>SGP4</MEAN_ELEMENT_THEORY></metadata><data><meanElements><EPOCH>2024-11-14T09:36:19.830528</EPOCH><MEAN_MOTION>14.57559631</MEAN_MOTION><ECCENTRICITY>.0001872</ECCENTRICITY><INCLINATION>47.0032</INCLINATION><RA_OF_ASC_NODE>310.1868</RA_OF_ASC_NODE><ARG_OF_PERICENTER>21.5798</ARG_OF_PERICENTER><MEAN_ANOMALY>338.5166</MEAN_ANOMALY></meanElements><tleParameters><EPHEMERIS_TYPE>0</EPHEMERIS_TYPE><CLASSIFICATION_TYPE>U</CLASSIFICATION_TYPE><NORAD_CAT_ID>40086</NORAD_CAT_ID><ELEMENT_SET_NO>999</ELEMENT_SET_NO><REV_AT_EPOCH>54972</REV_AT_EPOCH><BSTAR>.48884E-3</BSTAR><MEAN_MOTION_DOT>.2078E-4</MEAN_MOTION_DOT><MEAN_MOTION_DDOT>0</MEAN_MOTION_DDOT></tleParameters></data></segment></body></omm>
<omm id="CCSDS_OMM_VERS" version="2.0">
<header><CREATION_DATE/><ORIGINATOR/></header><body><segment><metadata><OBJECT_NAME>ORBCOMM FM107</OBJECT_NAME><OBJECT_ID>2014-040B</OBJECT_ID><CENTER_NAME>EARTH</CENTER_NAME><REF_FRAME>TEME</REF_FRAME><TIME_SYSTEM>UTC</TIME_SYSTEM><MEAN_ELEMENT_THEORY>SGP4</MEAN_ELEMENT_THEORY></metadata><data><meanElements><EPOCH>2024-11-15T11:10:05.803680</EPOCH><MEAN_MOTION>14.57498944</MEAN_MOTION><ECCENTRICITY>.0001557</ECCENTRICITY><INCLINATION>47.0049</INCLINATION><RA_OF_ASC_NODE>306.1854</RA_OF_ASC_NODE><ARG_OF_PERICENTER>351.9407</ARG_OF_PERICENTER><MEAN_ANOMALY>8.1453</MEAN_ANOMALY></meanElements><tleParameters><EPHEMERIS_TYPE>0</EPHEMERIS_TYPE><CLASSIFICATION_TYPE>U</CLASSIFICATION_TYPE><NORAD_CAT_ID>40087</NORAD_CAT_ID><ELEMENT_SET_NO>999</ELEMENT_SET_NO><REV_AT_EPOCH>54999</REV_AT_EPOCH><BSTAR>.49503E-3</BSTAR><MEAN_MOTION_DOT>.2103E-4</MEAN_MOTION_DOT><MEAN_MOTION_DDOT>0</MEAN_MOTION_DDOT></tleParameters></data></segment></body></omm>
<omm id="CCSDS_OMM_VERS" version="2.0">
<header><CREATION_DATE/><ORIGINATOR/></header><body><segment><metadata><OBJECT_NAME>ORBCOMM FM106</OBJECT_NAME><OBJECT_ID>2014-040C</OBJECT_ID><CENTER_NAME>EARTH</CENTER_NAME><REF_FRAME>TEME</REF_FRAME><TIME_SYSTEM>UTC</TIME_SYSTEM><MEAN_ELEMENT_THEORY>SGP4</MEAN_ELEMENT_THEORY></metadata><data><meanElements><EPOCH>2024-11-14T13:46:36.801120</EPOCH><MEAN_MOTION>14.68285562</MEAN_MOTION><ECCENTRICITY>.0017524</ECCENTRICITY><INCLINATION>47.0580</INCLINATION><RA_OF_ASC_NODE>149.4067</RA_OF_ASC_NODE><ARG_OF_PERICENTER>153.3332</ARG_OF_PERICENTER><MEAN_ANOMALY>206.8463</MEAN_ANOMALY></meanElements><tleParameters><EPHEMERIS_TYPE>0</EPHEMERIS_TYPE><CLASSIFICATION_TYPE>U</CLASSIFICATION_TYPE><NORAD_CAT_ID>40088</NORAD_CAT_ID><ELEMENT_SET_NO>999</ELEMENT_SET_NO><REV_AT_EPOCH>55213</REV_AT_EPOCH><BSTAR>.51789E-3</BSTAR><MEAN_MOTION_DOT>.2838E-4</MEAN_MOTION_DOT><MEAN_MOTION_DDOT>0</MEAN_MOTION_DDOT></tleParameters></data></segment></body></omm>
<omm id="CCSDS_OMM_VERS" version="2.0">
<header><CREATION_DATE/><ORIGINATOR/></header><body><segment><metadata><OBJECT_NAME>ORBCOMM FM111</OBJECT_NAME><OBJECT_ID>2014-040D</OBJECT_ID><CENTER_NAME>EARTH</CENTER_NAME><REF_FRAME>TEME</REF_FRAME><TIME_SYSTEM>UTC</TIME_SYSTEM><MEAN_ELEMENT_THEORY>SGP4</MEAN_ELEMENT_THEORY></metadata><data><meanElements><EPOCH>2024-11-15T12:19:31.913184</EPOCH><MEAN_MOTION>14.83983387</MEAN_MOTION><ECCENTRICITY>.0032666</ECCENTRICITY><INCLINATION>47.0046</INCLINATION><RA_OF_ASC_NODE>23.0316</RA_OF_ASC_NODE><ARG_OF_PERICENTER>253.0861</ARG_OF_PERICENTER><MEAN_ANOMALY>106.6452</MEAN_ANOMALY></meanElements><tleParameters><EPHEMERIS_TYPE>0</EPHEMERIS_TYPE><CLASSIFICATION_TYPE>U</CLASSIFICATION_TYPE><NORAD_CAT_ID>40089</NORAD_CAT_ID><ELEMENT_SET_NO>999</ELEMENT_SET_NO><REV_AT_EPOCH>55846</REV_AT_EPOCH><BSTAR>.70407E-3</BSTAR><MEAN_MOTION_DOT>.5772E-4</MEAN_MOTION_DOT><MEAN_MOTION_DDOT>0</MEAN_MOTION_DDOT></tleParameters></data></segment></body></omm>
<omm id="CCSDS_OMM_VERS" version="2.0">
<header><CREATION_DATE/><ORIGINATOR/></header><body><segment><metadata><OBJECT_NAME>ORBCOMM FM104</OBJECT_NAME><OBJECT_ID>2014-040E</OBJECT_ID><CENTER_NAME>EARTH</CENTER_NAME><REF_FRAME>TEME</REF_FRAME><TIME_SYSTEM>UTC</TIME_SYSTEM><MEAN_ELEMENT_THEORY>SGP4</MEAN_ELEMENT_THEORY></metadata><data><meanElements><EPOCH>2024-11-15T11:57:12.829824</EPOCH><MEAN_MOTION>14.55947340</MEAN_MOTION><ECCENTRICITY>.0017581</ECCENTRICITY><INCLINATION>47.0063</INCLINATION><RA_OF_ASC_NODE>337.1197</RA_OF_ASC_NODE><ARG_OF_PERICENTER>307.8402</ARG_OF_PERICENTER><MEAN_ANOMALY>52.0892</MEAN_ANOMALY></meanElements><tleParameters><EPHEMERIS_TYPE>0</EPHEMERIS_TYPE><CLASSIFICATION_TYPE>U</CLASSIFICATION_TYPE><NORAD_CAT_ID>40090</NORAD_CAT_ID><ELEMENT_SET_NO>999</ELEMENT_SET_NO><REV_AT_EPOCH>54957</REV_AT_EPOCH><BSTAR>.45878E-3</BSTAR><MEAN_MOTION_DOT>.1871E-4</MEAN_MOTION_DOT><MEAN_MOTION_DDOT>0</MEAN_MOTION_DDOT></tleParameters></data></segment></body></omm>

</ndm>
