ORBCOMM FM37            
1 33064U 08031E   24320.41451007  .00004230  00000+0  60571-3 0  9991
2 33064  48.4396 278.8009 0005551 177.1039 326.8895 14.78181545882722
ORBCOMM FM40            
1 33065U 08031F   24320.28763198  .00005454  00000+0  74057-3 0  9997
2 33065  48.4416 266.6889 0006952 185.6108 327.7213 14.79984281882895
VESSELSAT 1             
1 37840U 11058C   24319.37475336  .00000569  00000+0  16626-3 0  9997
2 37840  19.9632 313.6383 0013579 344.4425  15.5562 14.11262355675925
ORBCOMM FM109           
1 40086U 14040A   24319.40022952  .00002078  00000+0  48884-3 0  9991
2 40086  47.0032 310.1868 0001872  21.5798 338.5166 14.57559631549728
ORBCOMM FM107           
1 40087U 14040B   24320.46534495  .00002103  00000+0  49503-3 0  9998
2 40087  47.0049 306.1854 0001557 351.9407   8.1453 14.57498944549991
ORBCOMM FM106           
1 40088U 14040C   24319.57403705  .00002838  00000+0  51789-3 0  9992
2 40088  47.0580 149.4067 0017524 153.3332 206.8463 14.68285562552138
ORBCOMM FM111           
1 40089U 14040D   24320.51356381  .00005772  00000+0  70407-3 0  9994
2 40089  47.0046  23.0316 0032666 253.0861 106.6452 14.83983387558463
ORBCOMM FM104           
1 40090U 14040E   24320.49806516  .00001871  00000+0  45878-3 0  9993
2 40090  47.0063 337.1197 0017581 307.8402  52.0892 14.55947340549570
